{"type": "FeatureCollection", "features": [ {"type": "Feature", "properties": {"norad_id": 66911, "name": "1998-067XX", "group": "stations", "lat": 21.198555047924806, "lon": 144.29827361715147, "alt_km": 410.0079721692682, "timestamp": "2025-12-15T22:44:27.684390+00:00", "meta": {"OBJECT_NAME": "1998-067XX", "OBJECT_ID": "1998-067XX", "EPOCH": "2025-12-15T02:32:19.891392", "MEAN_MOTION": 15.5237976, "ECCENTRICITY": 0.00045157, "INCLINATION": 51.6294, "RA_OF_ASC_NODE": 130.59, "ARG_OF_PERICENTER": 223.2403, "MEAN_ANOMALY": 136.8232, "EPHEMERIS_TYPE": 0, "CLASSIFICATION_TYPE": "U", "NORAD_CAT_ID": 66911, "ELEMENT_SET_NO": 999, "REV_AT_EPOCH": 197, "BSTAR": 0.00090895834, "MEAN_MOTION_DOT": 0.00056424, "MEAN_MOTION_DDOT": 0}, "tle": {"line1": "1 66911U 98067XX  25349.10578578  .00056424  00000+0  90896-3 0  9992", "line2": "2 66911  51.6294 130.5900 0004515 223.2403 136.8232 15.52379760  1978"}}, "geometry": {"type": "Point", "coordinates": [144.29827361715147, 21.198555047924806]}}, {"type": "Feature", "properties": {"norad_id": 66912, "name": "1998-067XY", "group": "stations", "lat": -4.0619096282281655, "lon": 123.24449436512826, "alt_km": 414.96772386486646, "timestamp": "2025-12-15T22:44:27.684401+00:00", "meta": {"OBJECT_NAME": "1998-067XY", "OBJECT_ID": "1998-067XY", "EPOCH": "2025-12-15T02:39:57.579840", "MEAN_MOTION": 15.51387757, "ECCENTRICITY": 0.00042755, "INCLINATION": 51.63, "RA_OF_ASC_NODE": 130.6254, "ARG_OF_PERICENTER": 236.764, "MEAN_ANOMALY": 123.294, "EPHEMERIS_TYPE": 0, "CLASSIFICATION_TYPE": "U", "NORAD_CAT_ID": 66912, "ELEMENT_SET_NO": 999, "REV_AT_EPOCH": 197, "BSTAR": 0.00062299922, "MEAN_MOTION_DOT": 0.00037074, "MEAN_MOTION_DDOT": 0}, "tle": {"line1": "1 66912U 98067XY  25349.11108310  .00037074  00000+0  62300-3 0  9996", "line2": "2 66912  51.6300 130.6254 0004275 236.7640 123.2940 15.51387757  1975"}}, "geometry": {"type": "Point", "coordinates": [123.24449436512826, -4.0619096282281655]}}]}